STARLINK-36757          
1 67728U 26026H   26052.25002315 -.01890178  98871-3 -55586-2 0  9992
2 67728  97.2730 106.0139 0001460  67.5178  27.5355 15.92805400  2660
STARLINK-36751          
1 67729U 26026J   26052.25002315 -.01870668  97388-3 -53829-2 0  9995
2 67729  97.2726 106.0175 0001494  66.9711  36.7647 15.93221713  2665
STARLINK-36747          
1 67730U 26026K   26052.25002315 -.01879703  98011-3 -54814-2 0  9995
2 67730  97.2729 106.0157 0001533  62.4396  36.0791 15.92966327  2663
STARLINK-36315          
1 67731U 26026L   26052.25002315 -.01872627  97744-3 -53434-2 0  9993
2 67731  97.2727 106.0193 0001436  72.6303  34.4813 15.93383491  2668
STARLINK-36260          
1 67732U 26026M   26052.25002315 -.01870238  97718-3 -52800-2 0  9997
2 67732  97.2725 106.0208 0001542  66.9369  44.2513 15.93587090  2667
STARLINK-36746          
1 67733U 26026N   26052.25002315 -.01866421  97472-3 -52351-2 0  9995
2 67733  97.2722 106.0223 0001584  65.7268  48.3029 15.93710925  2665
STARLINK-36749          
1 67734U 26026P   26052.25002315 -.01848567  95933-3 -51305-2 0  9995
2 67734  97.2720 106.0237 0001493  72.5710  45.7019 15.93910648  2660
STARLINK-36691          
1 67735U 26026Q   26052.25002315 -.01851060  96761-3 -49842-2 0  9991
2 67735  97.2714 106.0293 0001611  64.1466  65.4209 15.94485762  2804
STARLINK-36317          
1 67736U 26026R   26052.25002315 -.01852386  96612-3 -50601-2 0  9994
2 67736  97.2717 106.0256 0001625  65.9663  58.1244 15.94212816  2660
STARLINK-36330          
1 67737U 26026S   26052.25002315 -.01835906  95450-3 -48999-2 0  9990
2 67737  97.2709 106.0303 0001695  61.2122  71.9943 15.94650944  2668
STARLINK-36327          
1 67738U 26026T   26052.25002315 -.01840472  96134-3 -48517-2 0  9991
2 67738  97.2708 106.0325 0001582  70.0562  67.7086 15.94885253  2667
STARLINK-36329          
1 67739U 26026U   26052.25002315 -.01796369  93178-3 -44112-2 0  9999
2 67739  97.2690 106.0435 0001535  73.9269  90.5391 15.96206478  2665
