CCSDS_OMM_VERS = 2.0
CREATION_DATE  = 
ORIGINATOR     = 

OBJECT_NAME    = STARLINK-36757
OBJECT_ID      = 2026-026H
CENTER_NAME    = EARTH
REF_FRAME      = TEME
TIME_SYSTEM    = UTC
MEAN_ELEMENT_THEORY = SGP/SGP4

EPOCH          = 2026-02-21T06:00:02.000160
MEAN_MOTION    = 15.92805400
ECCENTRICITY   = .00014605
INCLINATION    = 97.2730
RA_OF_ASC_NODE = 106.0139
ARG_OF_PERICENTER = 67.5178
MEAN_ANOMALY   = 27.5355

EPHEMERIS_TYPE = 0
CLASSIFICATION_TYPE = U
NORAD_CAT_ID   = 67728
ELEMENT_SET_NO = 999
REV_AT_EPOCH   = 266
BSTAR          = -.55585901E-2
MEAN_MOTION_DOT = -.1890178E-1
MEAN_MOTION_DDOT = .98871364E-3

CCSDS_OMM_VERS = 2.0
CREATION_DATE  = 
ORIGINATOR     = 

OBJECT_NAME    = STARLINK-36751
OBJECT_ID      = 2026-026J
CENTER_NAME    = EARTH
REF_FRAME      = TEME
TIME_SYSTEM    = UTC
MEAN_ELEMENT_THEORY = SGP/SGP4

EPOCH          = 2026-02-21T06:00:02.000160
MEAN_MOTION    = 15.93221713
ECCENTRICITY   = .0001494
INCLINATION    = 97.2726
RA_OF_ASC_NODE = 106.0175
ARG_OF_PERICENTER = 66.9711
MEAN_ANOMALY   = 36.7647

EPHEMERIS_TYPE = 0
CLASSIFICATION_TYPE = U
NORAD_CAT_ID   = 67729
ELEMENT_SET_NO = 999
REV_AT_EPOCH   = 266
BSTAR          = -.53829013E-2
MEAN_MOTION_DOT = -.1870668E-1
MEAN_MOTION_DDOT = .97388425E-3

CCSDS_OMM_VERS = 2.0
CREATION_DATE  = 
ORIGINATOR     = 

OBJECT_NAME    = STARLINK-36747
OBJECT_ID      = 2026-026K
CENTER_NAME    = EARTH
REF_FRAME      = TEME
TIME_SYSTEM    = UTC
MEAN_ELEMENT_THEORY = SGP/SGP4

EPOCH          = 2026-02-21T06:00:02.000160
MEAN_MOTION    = 15.92966327
ECCENTRICITY   = .00015336
INCLINATION    = 97.2729
RA_OF_ASC_NODE = 106.0157
ARG_OF_PERICENTER = 62.4396
MEAN_ANOMALY   = 36.0791

EPHEMERIS_TYPE = 0
CLASSIFICATION_TYPE = U
NORAD_CAT_ID   = 67730
ELEMENT_SET_NO = 999
REV_AT_EPOCH   = 266
BSTAR          = -.54814404E-2
MEAN_MOTION_DOT = -.1879703E-1
MEAN_MOTION_DDOT = .98010933E-3

CCSDS_OMM_VERS = 2.0
CREATION_DATE  = 
ORIGINATOR     = 

OBJECT_NAME    = STARLINK-36315
OBJECT_ID      = 2026-026L
CENTER_NAME    = EARTH
REF_FRAME      = TEME
TIME_SYSTEM    = UTC
MEAN_ELEMENT_THEORY = SGP/SGP4

EPOCH          = 2026-02-21T06:00:02.000160
MEAN_MOTION    = 15.93383491
ECCENTRICITY   = .00014367
INCLINATION    = 97.2727
RA_OF_ASC_NODE = 106.0193
ARG_OF_PERICENTER = 72.6303
MEAN_ANOMALY   = 34.4813

EPHEMERIS_TYPE = 0
CLASSIFICATION_TYPE = U
NORAD_CAT_ID   = 67731
ELEMENT_SET_NO = 999
REV_AT_EPOCH   = 266
BSTAR          = -.53434342E-2
MEAN_MOTION_DOT = -.1872627E-1
MEAN_MOTION_DDOT = .97744089E-3

CCSDS_OMM_VERS = 2.0
CREATION_DATE  = 
ORIGINATOR     = 

OBJECT_NAME    = STARLINK-36260
OBJECT_ID      = 2026-026M
CENTER_NAME    = EARTH
REF_FRAME      = TEME
TIME_SYSTEM    = UTC
MEAN_ELEMENT_THEORY = SGP/SGP4

EPOCH          = 2026-02-21T06:00:02.000160
MEAN_MOTION    = 15.93587090
ECCENTRICITY   = .00015421
INCLINATION    = 97.2725
RA_OF_ASC_NODE = 106.0208
ARG_OF_PERICENTER = 66.9369
MEAN_ANOMALY   = 44.2513

EPHEMERIS_TYPE = 0
CLASSIFICATION_TYPE = U
NORAD_CAT_ID   = 67732
ELEMENT_SET_NO = 999
REV_AT_EPOCH   = 266
BSTAR          = -.52800383E-2
MEAN_MOTION_DOT = -.1870238E-1
MEAN_MOTION_DDOT = .97718441E-3

CCSDS_OMM_VERS = 2.0
CREATION_DATE  = 
ORIGINATOR     = 

OBJECT_NAME    = STARLINK-36746
OBJECT_ID      = 2026-026N
CENTER_NAME    = EARTH
REF_FRAME      = TEME
TIME_SYSTEM    = UTC
MEAN_ELEMENT_THEORY = SGP/SGP4

EPOCH          = 2026-02-21T06:00:02.000160
MEAN_MOTION    = 15.93710925
ECCENTRICITY   = .00015847
INCLINATION    = 97.2722
RA_OF_ASC_NODE = 106.0223
ARG_OF_PERICENTER = 65.7268
MEAN_ANOMALY   = 48.3029

EPHEMERIS_TYPE = 0
CLASSIFICATION_TYPE = U
NORAD_CAT_ID   = 67733
ELEMENT_SET_NO = 999
REV_AT_EPOCH   = 266
BSTAR          = -.52350865E-2
MEAN_MOTION_DOT = -.1866421E-1
MEAN_MOTION_DDOT = .97471575E-3

CCSDS_OMM_VERS = 2.0
CREATION_DATE  = 
ORIGINATOR     = 

OBJECT_NAME    = STARLINK-36749
OBJECT_ID      = 2026-026P
CENTER_NAME    = EARTH
REF_FRAME      = TEME
TIME_SYSTEM    = UTC
MEAN_ELEMENT_THEORY = SGP/SGP4

EPOCH          = 2026-02-21T06:00:02.000160
MEAN_MOTION    = 15.93910648
ECCENTRICITY   = .00014937
INCLINATION    = 97.2720
RA_OF_ASC_NODE = 106.0237
ARG_OF_PERICENTER = 72.5710
MEAN_ANOMALY   = 45.7019

EPHEMERIS_TYPE = 0
CLASSIFICATION_TYPE = U
NORAD_CAT_ID   = 67734
ELEMENT_SET_NO = 999
REV_AT_EPOCH   = 266
BSTAR          = -.51305139E-2
MEAN_MOTION_DOT = -.1848567E-1
MEAN_MOTION_DDOT = .95933309E-3

CCSDS_OMM_VERS = 2.0
CREATION_DATE  = 
ORIGINATOR     = 

OBJECT_NAME    = STARLINK-36691
OBJECT_ID      = 2026-026Q
CENTER_NAME    = EARTH
REF_FRAME      = TEME
TIME_SYSTEM    = UTC
MEAN_ELEMENT_THEORY = SGP/SGP4

EPOCH          = 2026-02-21T06:00:02.000160
MEAN_MOTION    = 15.94485762
ECCENTRICITY   = .00016116
INCLINATION    = 97.2714
RA_OF_ASC_NODE = 106.0293
ARG_OF_PERICENTER = 64.1466
MEAN_ANOMALY   = 65.4209

EPHEMERIS_TYPE = 0
CLASSIFICATION_TYPE = U
NORAD_CAT_ID   = 67735
ELEMENT_SET_NO = 999
REV_AT_EPOCH   = 280
BSTAR          = -.4984241E-2
MEAN_MOTION_DOT = -.185106E-1
MEAN_MOTION_DDOT = .9676116E-3

CCSDS_OMM_VERS = 2.0
CREATION_DATE  = 
ORIGINATOR     = 

OBJECT_NAME    = STARLINK-36317
OBJECT_ID      = 2026-026R
CENTER_NAME    = EARTH
REF_FRAME      = TEME
TIME_SYSTEM    = UTC
MEAN_ELEMENT_THEORY = SGP/SGP4

EPOCH          = 2026-02-21T06:00:02.000160
MEAN_MOTION    = 15.94212816
ECCENTRICITY   = .00016259
INCLINATION    = 97.2717
RA_OF_ASC_NODE = 106.0256
ARG_OF_PERICENTER = 65.9663
MEAN_ANOMALY   = 58.1244

EPHEMERIS_TYPE = 0
CLASSIFICATION_TYPE = U
NORAD_CAT_ID   = 67736
ELEMENT_SET_NO = 999
REV_AT_EPOCH   = 266
BSTAR          = -.50601445E-2
MEAN_MOTION_DOT = -.1852386E-1
MEAN_MOTION_DDOT = .96611752E-3

CCSDS_OMM_VERS = 2.0
CREATION_DATE  = 
ORIGINATOR     = 

OBJECT_NAME    = STARLINK-36330
OBJECT_ID      = 2026-026S
CENTER_NAME    = EARTH
REF_FRAME      = TEME
TIME_SYSTEM    = UTC
MEAN_ELEMENT_THEORY = SGP/SGP4

EPOCH          = 2026-02-21T06:00:02.000160
MEAN_MOTION    = 15.94650944
ECCENTRICITY   = .00016958
INCLINATION    = 97.2709
RA_OF_ASC_NODE = 106.0303
ARG_OF_PERICENTER = 61.2122
MEAN_ANOMALY   = 71.9943

EPHEMERIS_TYPE = 0
CLASSIFICATION_TYPE = U
NORAD_CAT_ID   = 67737
ELEMENT_SET_NO = 999
REV_AT_EPOCH   = 266
BSTAR          = -.48999094E-2
MEAN_MOTION_DOT = -.1835906E-1
MEAN_MOTION_DDOT = .95449893E-3

CCSDS_OMM_VERS = 2.0
CREATION_DATE  = 
ORIGINATOR     = 

OBJECT_NAME    = STARLINK-36327
OBJECT_ID      = 2026-026T
CENTER_NAME    = EARTH
REF_FRAME      = TEME
TIME_SYSTEM    = UTC
MEAN_ELEMENT_THEORY = SGP/SGP4

EPOCH          = 2026-02-21T06:00:02.000160
MEAN_MOTION    = 15.94885253
ECCENTRICITY   = .00015822
INCLINATION    = 97.2708
RA_OF_ASC_NODE = 106.0325
ARG_OF_PERICENTER = 70.0562
MEAN_ANOMALY   = 67.7086

EPHEMERIS_TYPE = 0
CLASSIFICATION_TYPE = U
NORAD_CAT_ID   = 67738
ELEMENT_SET_NO = 999
REV_AT_EPOCH   = 266
BSTAR          = -.48517233E-2
MEAN_MOTION_DOT = -.1840472E-1
MEAN_MOTION_DDOT = .96133838E-3

CCSDS_OMM_VERS = 2.0
CREATION_DATE  = 
ORIGINATOR     = 

OBJECT_NAME    = STARLINK-36329
OBJECT_ID      = 2026-026U
CENTER_NAME    = EARTH
REF_FRAME      = TEME
TIME_SYSTEM    = UTC
MEAN_ELEMENT_THEORY = SGP/SGP4

EPOCH          = 2026-02-21T06:00:02.000160
MEAN_MOTION    = 15.96206478
ECCENTRICITY   = .00015359
INCLINATION    = 97.2690
RA_OF_ASC_NODE = 106.0435
ARG_OF_PERICENTER = 73.9269
MEAN_ANOMALY   = 90.5391

EPHEMERIS_TYPE = 0
CLASSIFICATION_TYPE = U
NORAD_CAT_ID   = 67739
ELEMENT_SET_NO = 999
REV_AT_EPOCH   = 266
BSTAR          = -.44111746E-2
MEAN_MOTION_DOT = -.1796369E-1
MEAN_MOTION_DDOT = .93178092E-3

